{
  "type": "FeatureCollection",
  "features": [
    {
      "type": "Feature",
      "properties": {
        "estado": "GO"
      },
      "geometry": {
        "type": "LineString",
        "coordinates": [
          [
            -50.893812356325206,
            -17.799541424302955
          ],
          [
            -50.916494660436,
            -17.804500726925003
          ],
          [
            -49.96081462896285,
            -16.459840612028362
          ],
          [
            -49.26887276585588,
            -16.672833253708525
          ],
          [
            -48.506772764634135,
            -16.08407742651032
          ]
        ]
      }
    }
  ]
}