{
  "type": "FeatureCollection",
  "features": [
    {
      "type": "Feature",
      "properties": {
        "estado": "MG"
      },
      "geometry": {
        "type": "LineString",
        "coordinates": [
          [
            -48.309470659443285,
            -18.950237259905315
          ],
          [
            -44.884079632219006,
            -20.14035968780133
          ],
          [
            -44.76203405975947,
            -20.437204870235007
          ],
          [
            -43.97078450027557,
            -19.90648672927733
          ],
          [
            -43.222253680108224,
            -19.63079871695884
          ],
          [
            -42.33631362538483,
            -16.79875682204193
          ],
          [
            -43.87247844204142,
            -16.72463312407852
          ],
          [
            -44.43394444794159,
            -16.215706428560953
          ],
          [
            -45.44052443549676,
            -22.43170384885132
          ]
        ]
      }
    }
  ]
}