{
  "type": "FeatureCollection",
  "features": [
    {
      "type": "Feature",
      "properties": {
        "estado": "PR"
      },
      "geometry": {
        "type": "LineString",
        "coordinates": [
          [
            -49.32467957443914,
            -25.50794253156171
          ],
          [
            -49.26485050867498,
            -25.532443548837268
          ],
          [
            -49.297768497845375,
            -25.433759382431624
          ],
          [
            -51.20526850179196,
            -23.28672008885518
          ],
          [
            -51.66793387228429,
            -23.236673429298893
          ],
          [
            -51.57907045278063,
            -23.60488886544814
          ],
          [
            -52.67454717796045,
            -26.226411667052982
          ]
        ]
      }
    }
  ]
}