{
  "type": "FeatureCollection",
  "features": [
    {
      "type": "Feature",
      "properties": {
        "estado": "RJ"
      },
      "geometry": {
        "type": "LineString",
        "coordinates": [
          [
            -43.022146384113576,
            -22.937391616620623
          ],
          [
            -42.991174595669065,
            -22.901199547746405
          ],
          [
            -43.06891496088816,
            -22.901684792085454
          ],
          [
            -43.127072924198885,
            -22.9006237676799
          ],
          [
            -43.18495724281751,
            -22.901209379401656
          ],
          [
            -43.24886943417944,
            -22.93768625306417
          ],
          [
            -43.19263365219479,
            -22.975419252327107
          ],
          [
            -43.19052130370873,
            -22.972873846317363
          ],
          [
            -43.265065434319375,
            -22.84207289300327
          ],
          [
            -43.37040843885934,
            -22.78130043658109
          ],
          [
            -43.43250149322672,
            -22.809500731742084
          ],
          [
            -43.40471828456725,
            -23.00061899109568
          ],
          [
            -43.0539481412297,
            -22.827149190613213
          ],
          [
            -43.03086077591251,
            -22.830988719475524
          ],
          [
            -43.47008296388347,
            -22.45551658751012
          ],
          [
            -42.03141356178735,
            -22.84416513205862
          ],
          [
            -41.33204541278835,
            -21.75650602388157
          ],
          [
            -42.19618878044136,
            -21.55285988163456
          ]
        ]
      }
    }
  ]
}