{
  "type": "FeatureCollection",
  "features": [
    {
      "type": "Feature",
      "properties": {
        "estado": "RS"
      },
      "geometry": {
        "type": "LineString",
        "coordinates": [
          [
            -52.20283767459886,
            -28.44591339464316
          ],
          [
            -52.22847844606442,
            -27.88662962008021
          ],
          [
            -52.842023145525545,
            -27.30519345806183
          ],
          [
            -53.395979139962776,
            -27.35619105881217
          ],
          [
            -54.9380392774257,
            -28.021510981557213
          ],
          [
            -57.08813772410531,
            -29.75577862604245
          ],
          [
            -51.20192263924164,
            -30.049924834136867
          ],
          [
            -51.19024851930904,
            -30.01356847741822
          ],
          [
            -51.14861204609,
            -30.015889963916965
          ],
          [
            -51.13057943808711,
            -29.79380500061652
          ]
        ]
      }
    }
  ]
}