{
  "type": "FeatureCollection",
  "features": [
    {
      "type": "Feature",
      "properties": {
        "name": "Ruta Óptima por Nodos"
      },
      "geometry": {
        "type": "LineString",
        "coordinates": [
          [
            -48.957918,
            -27.147792
          ],
          [
            -49.241125,
            -25.527874
          ],
          [
            -50.462084,
            -25.371976
          ],
          [
            -51.465756,
            -23.554477
          ],
          [
            -51.365003,
            -23.312477
          ],
          [
            -51.918235,
            -23.431131
          ],
          [
            -50.395429,
            -22.655662
          ],
          [
            -49.091045,
            -23.418047
          ],
          [
            -47.837621,
            -23.049552
          ],
          [
            -47.641148,
            -22.729029
          ],
          [
            -47.664701,
            -22.708702
          ],
          [
            -47.417055,
            -22.757883
          ],
          [
            -47.385501,
            -22.767878
          ],
          [
            -47.270335,
            -22.822137
          ],
          [
            -47.407129,
            -22.600004
          ],
          [
            -46.896754,
            -22.740325
          ],
          [
            -46.853963,
            -22.988257
          ],
          [
            -47.002682,
            -22.975458
          ],
          [
            -47.116025,
            -23.024934
          ],
          [
            -47.216887,
            -23.086339
          ],
          [
            -46.762875,
            -23.211746
          ],
          [
            -46.847968,
            -23.370879
          ],
          [
            -46.722316,
            -23.328494
          ],
          [
            -46.692417,
            -23.468167
          ],
          [
            -46.710536,
            -23.481158
          ],
          [
            -46.717052,
            -23.576698
          ],
          [
            -46.730191,
            -23.621324
          ],
          [
            -46.755753,
            -23.652366
          ],
          [
            -46.70381,
            -23.691013
          ],
          [
            -46.690795,
            -23.746937
          ],
          [
            -46.681806,
            -23.747947
          ],
          [
            -46.660665,
            -23.649632
          ],
          [
            -46.662809,
            -23.643527
          ],
          [
            -46.638005,
            -23.637283
          ],
          [
            -46.612,
            -23.625475
          ],
          [
            -46.598134,
            -23.612734
          ],
          [
            -46.615258,
            -23.587354
          ],
          [
            -46.621127,
            -23.582994
          ],
          [
            -46.613401,
            -23.567783
          ],
          [
            -46.632948,
            -23.561457
          ],
          [
            -46.652793,
            -23.564505
          ],
          [
            -46.65383,
            -23.579236
          ],
          [
            -46.65784,
            -23.545525
          ],
          [
            -46.605296,
            -23.508643
          ],
          [
            -46.600729,
            -23.472815
          ],
          [
            -46.553221,
            -23.443467
          ],
          [
            -46.546189,
            -23.493719
          ],
          [
            -46.565972,
            -23.530396
          ],
          [
            -46.536869,
            -23.552336
          ],
          [
            -46.53913,
            -23.562756
          ],
          [
            -46.521644,
            -23.547067
          ],
          [
            -46.508841,
            -23.559131
          ],
          [
            -46.511441,
            -23.588438
          ],
          [
            -46.469167,
            -23.609722
          ],
          [
            -46.523183,
            -23.659364
          ],
          [
            -46.525088,
            -23.659483
          ],
          [
            -46.561821,
            -23.68808
          ],
          [
            -46.559727,
            -23.595499
          ],
          [
            -46.595889,
            -23.564244
          ],
          [
            -46.513806,
            -23.525429
          ],
          [
            -46.49842,
            -23.525443
          ],
          [
            -46.494795,
            -23.531307
          ],
          [
            -46.485455,
            -23.508321
          ],
          [
            -46.446728,
            -23.495362
          ],
          [
            -46.444799,
            -23.539832
          ],
          [
            -46.325287,
            -23.466988
          ],
          [
            -46.74922,
            -23.477638
          ],
          [
            -46.814086,
            -23.835127
          ],
          [
            -46.422793,
            -23.997421
          ],
          [
            -46.337731,
            -23.9546
          ],
          [
            -46.895958,
            -23.512219
          ],
          [
            -47.509179,
            -23.433548
          ],
          [
            -47.861525,
            -23.344001
          ],
          [
            -47.62837,
            -22.762874
          ],
          [
            -47.368069,
            -22.726492
          ],
          [
            -47.165769,
            -22.571208
          ],
          [
            -47.478102,
            -21.866032
          ],
          [
            -47.902462,
            -22.060051
          ],
          [
            -48.073913,
            -21.359937
          ],
          [
            -47.8237,
            -21.172861
          ],
          [
            -47.76782,
            -21.17771
          ],
          [
            -47.863693,
            -20.585751
          ],
          [
            -49.389165,
            -20.806707
          ],
          [
            -48.829744,
            -21.757321
          ],
          [
            -47.401381,
            -20.538925
          ],
          [
            -46.023119,
            -20.569366
          ],
          [
            -46.171124,
            -22.262584
          ],
          [
            -45.440524,
            -22.431704
          ],
          [
            -45.190396,
            -22.825703
          ],
          [
            -45.533579,
            -23.027633
          ],
          [
            -45.591973,
            -23.042432
          ],
          [
            -45.908594,
            -23.216861
          ],
          [
            -46.400523,
            -23.710829
          ],
          [
            -46.660154,
            -23.563299
          ],
          [
            -45.093219,
            -23.452929
          ],
          [
            -43.383065,
            -22.969148
          ],
          [
            -43.248869,
            -22.937686
          ],
          [
            -43.21795,
            -22.916245
          ],
          [
            -43.184957,
            -22.901209
          ],
          [
            -43.190521,
            -22.972874
          ],
          [
            -43.192634,
            -22.975419
          ],
          [
            -43.068915,
            -22.901685
          ],
          [
            -43.022146,
            -22.937392
          ],
          [
            -42.991175,
            -22.9012
          ],
          [
            -43.265065,
            -22.842073
          ],
          [
            -43.370408,
            -22.7813
          ],
          [
            -43.432501,
            -22.809501
          ],
          [
            -43.201235,
            -22.540797
          ],
          [
            -43.470083,
            -22.455517
          ],
          [
            -42.031414,
            -22.844165
          ],
          [
            -41.332045,
            -21.756506
          ],
          [
            -42.196189,
            -21.55286
          ],
          [
            -42.87752,
            -20.754735
          ],
          [
            -43.222254,
            -19.630799
          ],
          [
            -43.931235,
            -19.894574
          ],
          [
            -43.946122,
            -19.92464
          ],
          [
            -43.945864,
            -19.92641
          ],
          [
            -43.970785,
            -19.906487
          ],
          [
            -43.989987,
            -19.810952
          ],
          [
            -44.88408,
            -20.14036
          ],
          [
            -44.762034,
            -20.437205
          ],
          [
            -43.030861,
            -22.830989
          ],
          [
            -43.127073,
            -22.900624
          ],
          [
            -45.939953,
            -23.267733
          ],
          [
            -49.352904,
            -20.185267
          ],
          [
            -48.309471,
            -18.950237
          ],
          [
            -48.192235,
            -18.652644
          ],
          [
            -49.115909,
            -17.733896
          ],
          [
            -49.268873,
            -16.672833
          ],
          [
            -49.960815,
            -16.459841
          ],
          [
            -48.506773,
            -16.084077
          ],
          [
            -48.053401,
            -15.838226
          ],
          [
            -47.92841,
            -15.800124
          ],
          [
            -47.893305,
            -15.813195
          ],
          [
            -44.433944,
            -16.215706
          ],
          [
            -43.872478,
            -16.724633
          ],
          [
            -42.336314,
            -16.798757
          ],
          [
            -38.523128,
            -13.005118
          ],
          [
            -36.494256,
            -8.893173
          ],
          [
            -34.851592,
            -7.2004
          ],
          [
            -35.221207,
            -5.822191
          ],
          [
            -44.248163,
            -2.501242
          ],
          [
            -60.025,
            -3.120036
          ],
          [
            -50.916495,
            -17.804501
          ],
          [
            -50.893812,
            -17.799541
          ],
          [
            -51.208017,
            -21.033223
          ],
          [
            -51.103187,
            -21.132504
          ],
          [
            -51.205269,
            -23.28672
          ],
          [
            -51.667934,
            -23.236673
          ],
          [
            -51.57907,
            -23.604889
          ],
          [
            -49.297768,
            -25.433759
          ],
          [
            -49.32468,
            -25.507943
          ],
          [
            -49.264851,
            -25.532444
          ],
          [
            -48.465857,
            -27.432686
          ],
          [
            -48.607593,
            -27.579217
          ],
          [
            -49.288674,
            -28.357507
          ],
          [
            -50.313912,
            -27.805198
          ],
          [
            -52.202838,
            -28.445913
          ],
          [
            -52.536535,
            -27.728956
          ],
          [
            -52.842023,
            -27.305193
          ],
          [
            -52.635529,
            -27.060818
          ],
          [
            -53.395979,
            -27.356191
          ],
          [
            -52.674547,
            -26.226412
          ],
          [
            -54.938039,
            -28.021511
          ],
          [
            -57.088138,
            -29.755779
          ],
          [
            -51.201304,
            -30.008182
          ],
          [
            -51.190249,
            -30.013568
          ],
          [
            -51.148612,
            -30.01589
          ],
          [
            -51.201923,
            -30.049925
          ],
          [
            -51.145059,
            -29.919403
          ],
          [
            -51.130579,
            -29.793805
          ],
          [
            -52.228478,
            -27.88663
          ],
          [
            -46.564837,
            -23.634903
          ],
          [
            -46.705347,
            -23.435105
          ],
          [
            -47.349404,
            -22.754938
          ],
          [
            -47.824164,
            -20.432177
          ],
          [
            -43.404718,
            -23.000619
          ],
          [
            -43.053948,
            -22.827149
          ]
        ]
      }
    }
  ]
}