{
  "type": "FeatureCollection",
  "features": [
    {
      "type": "Feature",
      "properties": {
        "estado": "SC"
      },
      "geometry": {
        "type": "LineString",
        "coordinates": [
          [
            -48.607593349827326,
            -27.579217338674056
          ],
          [
            -48.46585740459028,
            -27.432685844753685
          ],
          [
            -49.28867359716509,
            -28.357506793762703
          ],
          [
            -50.31391228860616,
            -27.805197638629167
          ],
          [
            -52.63552876787947,
            -27.060817859099703
          ]
        ]
      }
    }
  ]
}