{
  "type": "FeatureCollection",
  "features": [
    {
      "type": "Feature",
      "properties": {
        "estado": "SP"
      },
      "geometry": {
        "type": "LineString",
        "coordinates": [
          [
            -46.73019140744088,
            -23.621323518868845
          ],
          [
            -46.63800500644551,
            -23.63728348822799
          ],
          [
            -46.62112676164033,
            -23.5829939617234
          ],
          [
            -46.61340053805785,
            -23.567783274833246
          ],
          [
            -46.59588883900269,
            -23.564243757501828
          ],
          [
            -46.539130233721046,
            -23.56275648502631
          ],
          [
            -46.49841987054645,
            -23.525443166135744
          ],
          [
            -46.46916749859775,
            -23.60972199310609
          ],
          [
            -46.56483733891245,
            -23.63490255630611
          ],
          [
            -46.66015369245716,
            -23.563299264968794
          ],
          [
            -46.65784019308335,
            -23.54552478660237
          ],
          [
            -46.69241674056453,
            -23.468166749101524
          ],
          [
            -46.70534736523725,
            -23.435105075740704
          ],
          [
            -46.74921995719644,
            -23.477638371873425
          ],
          [
            -46.895958036640366,
            -23.512218586332576
          ],
          [
            -46.722315961539735,
            -23.328493946429976
          ],
          [
            -46.55322071143854,
            -23.443466857712394
          ],
          [
            -46.400522918579085,
            -23.710828956802267
          ],
          [
            -46.69079514460872,
            -23.746937065245564
          ],
          [
            -46.81408628502836,
            -23.8351268270498
          ],
          [
            -46.42279317244965,
            -23.99742100393031
          ],
          [
            -45.93995262197823,
            -23.267733362891654
          ],
          [
            -45.90859380488937,
            -23.216860677030184
          ],
          [
            -45.5919731250304,
            -23.042432206324506
          ],
          [
            -45.53357932189232,
            -23.027633427165465
          ],
          [
            -45.19039615570375,
            -22.82570251752049
          ],
          [
            -47.11602451997855,
            -23.02493387065307
          ],
          [
            -47.21688683643498,
            -23.0863391564841
          ],
          [
            -47.34940396715031,
            -22.754937621777128
          ],
          [
            -47.36806924905628,
            -22.726492189390758
          ],
          [
            -47.628370056992935,
            -22.76287427435325
          ],
          [
            -47.1657687687331,
            -22.571207861628345
          ],
          [
            -47.4781017581213,
            -21.86603242598352
          ],
          [
            -47.40138054689607,
            -20.538924680582515
          ],
          [
            -47.82416381617847,
            -20.43217689916522
          ],
          [
            -49.35290379035787,
            -20.185267431091138
          ],
          [
            -51.20801738963666,
            -21.03322283931103
          ],
          [
            -49.09104467317485,
            -23.418046558743534
          ],
          [
            -47.86152527349471,
            -23.34400083421551
          ]
        ]
      }
    }
  ]
}